KUIPER-00061            
1 64521U 25134X   25342.19728864  .00005680  00000+0  76788-3 0  9991
2 64521  51.9012 272.6330 0005137 341.7085  18.3692 14.80243578 26587
KUIPER-00062            
1 64522U 25134Y   25342.10687106  .00006483  00000+0  77759-3 0  9997
2 64522  51.8979 278.1944 0007112 358.3757   1.7183 14.85061672 26518
KUIPER-00063            
1 64523U 25134Z   25342.11172692  .00008467  00000+0  11269-2 0  9995
2 64523  51.9035 282.9345 0003043 316.6407  43.4316 14.80356260 26447
KUIPER-00064            
1 64524U 25134AA  25342.25958288 -.00003523  00000+0 -43261-3 0  9992
2 64524  51.9031 279.8017 0008302  53.5784 306.5943 14.79946642 26506
KUIPER-00065            
1 64525U 25134AB  25342.06035888  .00005023  00000+0  73748-3 0  9992
2 64525  51.9025 285.9271 0010698 339.9767  20.0773 14.76894827 26382
KUIPER-00066            
1 64526U 25134AC  25342.23540598  .00024389  00000+0  11075-2 0  9991
2 64526  51.8867 255.8959 0001163  81.7722 278.3389 15.20645070 26830
KUIPER-00069            
1 64816U 25151A   25342.21098615  .00005733  00000+0  77891-3 0  9999
2 64816  51.9028 325.1280 0006745 344.8602  15.2157 14.80006535 23213
KUIPER-00070            
1 64817U 25151B   25342.28539212 -.00001576  00000+0 -17734-3 0  9993
2 64817  51.9018 349.7554 0009981 313.3552  46.6578 14.79931459 22886
